{
  "type": "FeatureCollection",
  "features": [
    {
      "type": "Feature",
      "properties": {
        "norad_id": 41772,
        "name": "SKYSAT-C5",
        "group": "resource",
        "lat": 54.46781562846527,
        "lon": 17.112132933242926,
        "alt_km": 454.93716266533465,
        "timestamp": "2025-12-09T05:43:20.385192+00:00",
        "meta_object_name": "SKYSAT-C5",
        "meta_object_id": "2016-058C",
        "meta_epoch": "2025-12-08T15:24:16.799040",
        "meta_mean_motion": 15.35248104,
        "meta_eccentricity": 0.0002249,
        "meta_inclination": 97.076,
        "meta_ra_of_asc_node": 26.5564,
        "meta_arg_of_pericenter": 143.4055,
        "meta_mean_anomaly": 216.7344,
        "meta_ephemeris_type": 0,
        "meta_classification_type": "U",
        "meta_norad_cat_id": 41772,
        "meta_element_set_no": 999,
        "meta_rev_at_epoch": 51453,
        "meta_bstar": 0.00038263,
        "meta_mean_motion_dot": 0.00013027,
        "meta_mean_motion_ddot": 0,
        "tle_line1": "1 41772U 16058C   25342.64186110  .00013027  00000+0  38263-3 0  9991",
        "tle_line2": "2 41772  97.0760  26.5564 0002249 143.4055 216.7344 15.35248104514537"
      },
      "geometry": {
        "type": "Point",
        "coordinates": [
          17.112132933242926,
          54.46781562846527
        ]
      }
    },
    {
      "type": "Feature",
      "properties": {
        "norad_id": 41773,
        "name": "SKYSAT-C2",
        "group": "resource",
        "lat": 40.02509393077911,
        "lon": 1.9596208957788641,
        "alt_km": 448.3555284187787,
        "timestamp": "2025-12-09T05:43:20.385202+00:00",
        "meta_object_name": "SKYSAT-C2",
        "meta_object_id": "2016-058D",
        "meta_epoch": "2025-12-08T15:29:09.816864",
        "meta_mean_motion": 15.37129465,
        "meta_eccentricity": 0.0004649,
        "meta_inclination": 97.036,
        "meta_ra_of_asc_node": 7.3456,
        "meta_arg_of_pericenter": 44.7513,
        "meta_mean_anomaly": 315.4107,
        "meta_ephemeris_type": 0,
        "meta_classification_type": "U",
        "meta_norad_cat_id": 41773,
        "meta_element_set_no": 999,
        "meta_rev_at_epoch": 51573,
        "meta_bstar": 0.00041366,
        "meta_mean_motion_dot": 0.00014974,
        "meta_mean_motion_ddot": 0,
        "tle_line1": "1 41773U 16058D   25342.64525251  .00014974  00000+0  41366-3 0  9995",
        "tle_line2": "2 41773  97.0360   7.3456 0004649  44.7513 315.4107 15.37129465515736"
      },
      "geometry": {
        "type": "Point",
        "coordinates": [
          1.9596208957788641,
          40.02509393077911
        ]
      }
    },
    {
      "type": "Feature",
      "properties": {
        "norad_id": 41774,
        "name": "SKYSAT-C3",
        "group": "resource",
        "lat": 39.67751444637901,
        "lon": -157.0613047878591,
        "alt_km": 429.8553904990313,
        "timestamp": "2025-12-09T05:43:20.385212+00:00",
        "meta_object_name": "SKYSAT-C3",
        "meta_object_id": "2016-058E",
        "meta_epoch": "2025-12-08T19:47:14.322048",
        "meta_mean_motion": 15.4418834,
        "meta_eccentricity": 0.0001607,
        "meta_inclination": 96.93,
        "meta_ra_of_asc_node": 16.7531,
        "meta_arg_of_pericenter": 105.459,
        "meta_mean_anomaly": 254.6837,
        "meta_ephemeris_type": 0,
        "meta_classification_type": "U",
        "meta_norad_cat_id": 41774,
        "meta_element_set_no": 999,
        "meta_rev_at_epoch": 51665,
        "meta_bstar": 0.00057945,
        "meta_mean_motion_dot": 0.00026551,
        "meta_mean_motion_ddot": 0,
        "tle_line1": "1 41774U 16058E   25342.82447132  .00026551  00000+0  57945-3 0  9991",
        "tle_line2": "2 41774  96.9300  16.7531 0001607 105.4590 254.6837 15.44188340516659"
      },
      "geometry": {
        "type": "Point",
        "coordinates": [
          -157.0613047878591,
          39.67751444637901
        ]
      }
    },
    {
      "type": "Feature",
      "properties": {
        "norad_id": 41785,
        "name": "ALSAT 1B",
        "group": "resource",
        "lat": -7.306454262179142,
        "lon": 174.17449490641621,
        "alt_km": 656.3658261942364,
        "timestamp": "2025-12-09T05:43:20.385229+00:00",
        "meta_object_name": "ALSAT 1B",
        "meta_object_id": "2016-059C",
        "meta_epoch": "2025-12-08T20:43:07.054176",
        "meta_mean_motion": 14.72068557,
        "meta_eccentricity": 0.0010598,
        "meta_inclination": 97.781,
        "meta_ra_of_asc_node": 354.8201,
        "meta_arg_of_pericenter": 114.1217,
        "meta_mean_anomaly": 246.11,
        "meta_ephemeris_type": 0,
        "meta_classification_type": "U",
        "meta_norad_cat_id": 41785,
        "meta_element_set_no": 999,
        "meta_rev_at_epoch": 49257,
        "meta_bstar": 0.0001043,
        "meta_mean_motion_dot": 6.09e-06,
        "meta_mean_motion_ddot": 0,
        "tle_line1": "1 41785U 16059C   25342.86327609  .00000609  00000+0  10430-3 0  9998",
        "tle_line2": "2 41785  97.7810 354.8201 0010598 114.1217 246.1100 14.72068557492578"
      },
      "geometry": {
        "type": "Point",
        "coordinates": [
          174.17449490641621,
          -7.306454262179142
        ]
      }
    },
    {
      "type": "Feature",
      "properties": {
        "norad_id": 41787,
        "name": "PATHFINDER 1",
        "group": "resource",
        "lat": -34.425489274704546,
        "lon": -8.425062099995731,
        "alt_km": 688.4439074192387,
        "timestamp": "2025-12-09T05:43:20.385239+00:00",
        "meta_object_name": "PATHFINDER 1",
        "meta_object_id": "2016-059E",
        "meta_epoch": "2025-12-08T20:03:39.962016",
        "meta_mean_motion": 14.67311564,
        "meta_eccentricity": 0.0030055,
        "meta_inclination": 97.8138,
        "meta_ra_of_asc_node": 345.7907,
        "meta_arg_of_pericenter": 93.0346,
        "meta_mean_anomaly": 267.43,
        "meta_ephemeris_type": 0,
        "meta_classification_type": "U",
        "meta_norad_cat_id": 41787,
        "meta_element_set_no": 999,
        "meta_rev_at_epoch": 49179,
        "meta_bstar": 0.00028115,
        "meta_mean_motion_dot": 1.551e-05,
        "meta_mean_motion_ddot": 0,
        "tle_line1": "1 41787U 16059E   25342.83587919  .00001551  00000+0  28115-3 0  9995",
        "tle_line2": "2 41787  97.8138 345.7907 0030055  93.0346 267.4300 14.67311564491798"
      },
      "geometry": {
        "type": "Point",
        "coordinates": [
          -8.425062099995731,
          -34.425489274704546
        ]
      }
    },
    {
      "type": "Feature",
      "properties": {
        "norad_id": 41790,
        "name": "SCATSAT 1",
        "group": "resource",
        "lat": 7.530132613954405,
        "lon": -139.04999691989832,
        "alt_km": 601.760573445772,
        "timestamp": "2025-12-09T05:43:20.385249+00:00",
        "meta_object_name": "SCATSAT 1",
        "meta_object_id": "2016-059H",
        "meta_epoch": "2025-12-08T17:34:57.844416",
        "meta_mean_motion": 14.78916812,
        "meta_eccentricity": 0.0056069,
        "meta_inclination": 98.1466,
        "meta_ra_of_asc_node": 39.3529,
        "meta_arg_of_pericenter": 140.6701,
        "meta_mean_anomaly": 219.8602,
        "meta_ephemeris_type": 0,
        "meta_classification_type": "U",
        "meta_norad_cat_id": 41790,
        "meta_element_set_no": 999,
        "meta_rev_at_epoch": 7343,
        "meta_bstar": 0.00041382,
        "meta_mean_motion_dot": 3.076e-05,
        "meta_mean_motion_ddot": 0,
        "tle_line1": "1 41790U 16059H   25342.73261394  .00003076  00000+0  41382-3 0  9999",
        "tle_line2": "2 41790  98.1466  39.3529 0056069 140.6701 219.8602 14.78916812 73435"
      },
      "geometry": {
        "type": "Point",
        "coordinates": [
          -139.04999691989832,
          7.530132613954405
        ]
      }
    },
    {
      "type": "Feature",
      "properties": {
        "norad_id": 41875,
        "name": "GOKTURK 1A",
        "group": "resource",
        "lat": 77.25382790851076,
        "lon": 94.91997404846111,
        "alt_km": 676.1361284340492,
        "timestamp": "2025-12-09T05:43:20.385259+00:00",
        "meta_object_name": "GOKTURK 1A",
        "meta_object_id": "2016-073A",
        "meta_epoch": "2025-12-08T19:25:03.332640",
        "meta_mean_motion": 14.62772245,
        "meta_eccentricity": 0.0001275,
        "meta_inclination": 98.1431,
        "meta_ra_of_asc_node": 235.2264,
        "meta_arg_of_pericenter": 78.3619,
        "meta_mean_anomaly": 281.7726,
        "meta_ephemeris_type": 0,
        "meta_classification_type": "U",
        "meta_norad_cat_id": 41875,
        "meta_element_set_no": 999,
        "meta_rev_at_epoch": 48099,
        "meta_bstar": 0.00015413,
        "meta_mean_motion_dot": 7.39e-06,
        "meta_mean_motion_ddot": 0,
        "tle_line1": "1 41875U 16073A   25342.80906635  .00000739  00000+0  15413-3 0  9990",
        "tle_line2": "2 41875  98.1431 235.2264 0001275  78.3619 281.7726 14.62772245480999"
      },
      "geometry": {
        "type": "Point",
        "coordinates": [
          94.91997404846111,
          77.25382790851076
        ]
      }
    }
  ]
}